NORAD_CAT_ID,OBJECT_NAME,OBJECT_TYPE,EPOCH,MEAN_MOTION,ECCENTRICITY,INCLINATION,RA_OF_ASC_NODE,ARG_OF_PERICENTER,MEAN_ANOMALY,BSTAR,MEAN_MOTION_DOT,MEAN_MOTION_DDOT,TLE_LINE0,TLE_LINE1,TLE_LINE2,SEMIMAJOR_AXIS,PERIOD,APOGEE,PERIGEE,DECAYED
53546.0,STARLINK-4477,PAYLOAD,2022-11-26 14:00:01,15.08843798,0.0001718,53.2158,36.6385,45.6474,81.2675,0.0014429,0.00022753,0.0,0 STARLINK-4477,1 53546U 22101V   22330.58334491  .00022753  00000-0  14429-2 0  9997,2 53546  53.2158  36.6385 0001718  45.6474  81.2675 15.08843798 15421,6917.869000000002,95.437,540.922,538.545,0.0
53546.0,STARLINK-4477,PAYLOAD,2022-11-26 22:00:00,15.08863027,0.0001663,53.2155,35.1406,51.7931,86.7352,-0.0041141,-0.00065213,0.0,0 STARLINK-4477,1 53546U 22101V   22330.91667824 -.00065213  00000-0 -41141-2 0  9994,2 53546  53.2155  35.1406 0001663  51.7931  86.7352 15.08863027  1302,6917.81,95.436,540.825,538.525,0.0
53546.0,STARLINK-4477,PAYLOAD,2022-11-27 06:00:00,15.08832621,0.000173,53.2155,33.6441,56.9373,93.1789,-8.972799999999999e-05,-1.716e-05,0.0,0 STARLINK-4477,1 53546U 22101V   22331.25001157 -.00001716  00000-0 -89728-4 0  9996,2 53546  53.2155  33.6441 0001730  56.9373  93.1789 15.08832621 15527,6917.903,95.438,540.965,538.571,0.0
53546.0,STARLINK-4477,PAYLOAD,2022-11-27 14:00:01,15.088162699999998,0.0001863,53.2153,32.1492,49.3455,112.3608,0.0019369,0.00030652,0.0,0 STARLINK-4477,1 53546U 22101V   22331.58334491  .00030652  00000-0  19369-2 0  9993,2 53546  53.2153  32.1492 0001863  49.3455 112.3608 15.08816270  1306,6917.953,95.439,541.107,538.529,0.0
53546.0,STARLINK-4477,PAYLOAD,2022-11-28 00:00:00,15.08798925,0.0001648,53.215,30.2767,52.4197,213.7732,0.0025374,0.0004028,0.0,0 STARLINK-4477,1 53546U 22101V   22332.00001157  .00040280  00000-0  25374-2 0  9992,2 53546  53.2150  30.2767 0001648  52.4197 213.7732 15.08798925  1306,6918.005999999999,95.44,541.011,538.731,0.0
53546.0,STARLINK-4477,PAYLOAD,2022-11-28 14:00:01,15.08811247,0.0001869,53.215,27.6598,47.2107,149.2407,0.00361,0.0005759,0.0,0 STARLINK-4477,1 53546U 22101V   22332.58334491  .00057590  00000-0  36100-2 0  9996,2 53546  53.2150  27.6598 0001869  47.2107 149.2407 15.08811247 15722,6917.968000000003,95.439,541.126,538.54,0.0
53546.0,STARLINK-4477,PAYLOAD,2022-11-28 22:00:01,15.0884003,0.0001713,53.215,26.1615,50.6553,157.4462,0.00073046,0.00011356,0.0,0 STARLINK-4477,1 53546U 22101V   22332.91668981  .00011356  00000-0  73046-3 0  9998,2 53546  53.2150  26.1615 0001713  50.6553 157.4462 15.08840030  1300,6917.88,95.438,540.93,538.56,0.0
53546.0,STARLINK-4477,PAYLOAD,2022-11-29 06:00:00,15.08873057,0.000173,53.2151,24.6654,52.1833,167.4501,-0.003537,-0.00056192,0.0,0 STARLINK-4477,1 53546U 22101V   22333.25001157 -.00056192  00000-0 -35370-2 0  9998,2 53546  53.2151  24.6654 0001730  52.1833 167.4501 15.08873057 15826,6917.779,95.435,540.841,538.448,0.0
53546.0,STARLINK-4477,PAYLOAD,2022-11-29 14:00:01,15.0882333,0.0001836,53.2152,23.1702,43.1961,188.1165,0.00086224,0.00013455,0.0,0 STARLINK-4477,1 53546U 22101V   22333.58335648  .00013455  00000-0  86224-3 0  9997,2 53546  53.2152  23.1702 0001836  43.1961 188.1165 15.08823330  1307,6917.931,95.439,541.066,538.526,0.0
53546.0,STARLINK-4477,PAYLOAD,2022-11-29 22:00:00,15.088115900000002,0.000165,53.2154,21.6719,45.1194,197.7184,0.0014109,0.0002222,0.0,0 STARLINK-4477,1 53546U 22101V   22333.91667824  .00022220  00000-0  14109-2 0  9990,2 53546  53.2154  21.6719 0001650  45.1194 197.7184 15.08811590 15929,6917.967,95.439,540.974,538.691,0.0
53546.0,STARLINK-4477,PAYLOAD,2022-11-30 14:00:01,15.08831961,0.000188,53.2157,18.6816,41.1718,224.8936,0.0011303,0.00017743,0.0,0 STARLINK-4477,1 53546U 22101V   22334.58335648  .00017743  00000-0  11303-2 0  9997,2 53546  53.2157  18.6816 0001880  41.1718 224.8936 15.08831961  1307,6917.905,95.438,541.071,538.469,0.0
53546.0,STARLINK-4477,PAYLOAD,2022-11-30 22:00:00,15.08841315,0.0001716,53.2167,17.1853,43.4494,234.1498,-0.0032268,-0.0005127999999999,0.0,0 STARLINK-4477,1 53546U 22101V   22334.91667824 -.00051280  00000-0 -32268-2 0  9997,2 53546  53.2167  17.1853 0001716  43.4494 234.1498 15.08841315 16089,6917.876,95.437,540.928,538.554,0.0
53546.0,STARLINK-4477,PAYLOAD,2022-12-01 06:00:00,15.08847806,0.0001743,53.2163,15.6868,44.5891,244.5783,-0.00083781,-0.000136,0.0,0 STARLINK-4477,1 53546U 22101V   22335.25001157 -.00013600  00000-0 -83781-3 0  9997,2 53546  53.2163  15.6868 0001743  44.5891 244.5783 15.08847806 16136,6917.857,95.437,540.927,538.516,0.0
53546.0,STARLINK-4477,PAYLOAD,2022-12-01 14:00:01,15.08836041,0.000188,53.216,14.1916,38.8992,261.876,0.001889,0.000299,0.0,0 STARLINK-4477,1 53546U 22101V   22335.58334491  .00029900  00000-0  18890-2 0  9999,2 53546  53.2160  14.1916 0001880  38.8992 261.8760 15.08836041  1300,6917.892,95.438,541.058,538.457,0.0
53546.0,STARLINK-4477,PAYLOAD,2022-12-02 00:00:00,15.08811023,0.0001611,53.2162,12.319,42.0751,3.2168,0.0037313,0.0005955,0.0,0 STARLINK-4477,1 53546U 22101V   22336.00001157  .00059550  00000-0  37313-2 0  9992,2 53546  53.2162  12.3190 0001611  42.0751   3.2168 15.08811023  1301,6917.969,95.439,540.948,538.719,0.0
53546.0,STARLINK-4477,PAYLOAD,2022-12-02 06:00:00,15.08872429,0.0001683,53.2166,11.1978,40.1504,283.8207,-0.0041593,-0.00065937,0.0,0 STARLINK-4477,1 53546U 22101V   22336.25001157 -.00065937  00000-0 -41593-2 0  9992,2 53546  53.2166  11.1978 0001683  40.1504 283.8207 15.08872429 16280,6917.781,95.436,540.811,538.482,0.0
53546.0,STARLINK-4477,PAYLOAD,2022-12-02 14:00:01,15.08808438,0.0001804,53.2162,9.7023,33.8523,301.7244,0.0028784,0.0004578,0.0,0 STARLINK-4477,1 53546U 22101V   22336.58334491  .00045780  00000-0  28784-2 0  9997,2 53546  53.2162   9.7023 0001804  33.8523 301.7244 15.08808438  1302,6917.977,95.44,541.09,538.594,0.0
53546.0,STARLINK-4477,PAYLOAD,2022-12-02 22:00:00,15.08812739,0.0001605,53.2164,8.2042,39.1859,307.9755,0.0028655,0.00045578,0.0,0 STARLINK-4477,1 53546U 22101V   22336.91667824  .00045578  00000-0  28655-2 0  9995,2 53546  53.2164   8.2042 0001605  39.1859 307.9755 15.08812739 16387,6917.964,95.439,540.939,538.7180000000002,0.0
53546.0,STARLINK-4477,PAYLOAD,2022-12-03 14:00:01,15.08811323,0.0001899,53.2159,5.2132,37.9006,332.4386,0.002305,0.00036558,0.0,0 STARLINK-4477,1 53546U 22101V   22337.58334491  .00036558  00000-0  23050-2 0  9992,2 53546  53.2159   5.2132 0001899  37.9006 332.4386 15.08811323 16485,6917.968000000003,95.439,541.1469999999998,538.519,0.0
53546.0,STARLINK-4477,PAYLOAD,2022-12-03 22:00:00,15.08808862,0.0001695,53.2159,3.7152,43.9242,337.9996,0.0032485,0.00051748,0.0,0 STARLINK-4477,1 53546U 22101V   22337.91667824  .00051748  00000-0  32485-2 0  9998,2 53546  53.2159   3.7152 0001695  43.9242 337.9996 15.08808862  1309,6917.976,95.44,541.013,538.668,0.0
53546.0,STARLINK-4477,PAYLOAD,2022-12-04 06:00:00,15.08866826,0.0001791,53.2159,2.2199,42.5966,350.9013,-0.0031281,-0.00049765,0.0,0 STARLINK-4477,1 53546U 22101V   22338.25001157 -.00049765  00000-0 -31281-2 0  9998,2 53546  53.2159   2.2199 0001791  42.5966 350.9013 15.08866826 16584,6917.7980000000025,95.436,540.9019999999998,538.424,0.0
53546.0,STARLINK-4477,PAYLOAD,2022-12-04 14:00:01,15.08821035,0.0001863,53.2153,0.7241,37.2602,7.8475,0.0012154,0.00019098,0.0,0 STARLINK-4477,1 53546U 22101V   22338.58334491  .00019098  00000-0  12154-2 0  9996,2 53546  53.2153   0.7241 0001863  37.2602   7.8475 15.08821035  1304,6917.938,95.439,541.092,538.515,0.0
53546.0,STARLINK-4477,PAYLOAD,2022-12-04 22:00:00,15.08809769,0.0001661,53.2153,359.226,42.9304,13.7672,0.0034995,0.00055802,0.0,0 STARLINK-4477,1 53546U 22101V   22338.91667824  .00055802  00000-0  34995-2 0  9992,2 53546  53.2153 359.2260 0001661  42.9304  13.7672 15.08809769 16687,6917.973000000001,95.439,540.987,538.689,0.0
53546.0,STARLINK-4477,PAYLOAD,2022-12-05 14:00:01,15.08839893,0.0001859,53.2147,356.2347,36.6862,43.2719,0.00031534,4.734e-05,0.0,0 STARLINK-4477,1 53546U 22101V   22339.58335648  .00004734  00000-0  31534-3 0  9997,2 53546  53.2147 356.2347 0001859  36.6862  43.2719 15.08839893 16783,6917.880999999999,95.438,541.0319999999998,538.46,0.0
53546.0,STARLINK-4477,PAYLOAD,2022-12-05 18:25:01,15.08847257,0.0002001,53.2184,355.4071,44.4406,315.6746,1.7317e-05,-1.3e-07,0.0,0 STARLINK-4477,1 53546U 22101V   22339.76738149 -.00000013  00000-0  17317-4 0  9991,2 53546  53.2184 355.4071 0002001  44.4406 315.6746 15.08847257 16813,6917.858,95.437,541.107,538.339,0.0
53546.0,STARLINK-4477,PAYLOAD,2022-12-06 10:18:53,15.08842525,0.0001856,53.2161,352.4344,42.0504,318.063,2.7471e-05,1.49e-06,0.0,0 STARLINK-4477,1 53546U 22101V   22340.42978295  .00000149  00000-0  27471-4 0  9995,2 53546  53.2161 352.4344 0001856  42.0504 318.0630 15.08842525 16911,6917.873000000001,95.437,541.0219999999998,538.4540000000002,0.0
53546.0,STARLINK-4477,PAYLOAD,2022-12-06 18:15:49,15.08831631,0.0002103,53.2171,350.9461,45.4016,314.7148,-4.939e-05,-1.074e-05,0.0,0 STARLINK-4477,1 53546U 22101V   22340.76099392 -.00001074  00000-0 -49390-4 0  9998,2 53546  53.2171 350.9461 0002103  45.4016 314.7148 15.08831631 16964,6917.906,95.438,541.226,538.316,0.0
53546.0,STARLINK-4477,PAYLOAD,2022-12-07 10:09:41,15.08836595,0.000195,53.2162,347.9731,48.8493,311.2667,-5.5483e-05,-1.171e-05,0.0,0 STARLINK-4477,1 53546U 22101V   22341.42339283 -.00001171  00000-0 -55483-4 0  9996,2 53546  53.2162 347.9731 0001950  48.8493 311.2667 15.08836595 17069,6917.891,95.438,541.105,538.4069999999998,0.0
53546.0,STARLINK-4477,PAYLOAD,2022-12-07 18:06:36,15.08832414,0.0001545,53.2176,346.4881,359.016,1.0828,-8.7785e-05,-1.685e-05,0.0,0 STARLINK-4477,1 53546U 22101V   22341.75458940 -.00001685  00000-0 -87785-4 0  9994,2 53546  53.2176 346.4881 0001545 359.0160   1.0828 15.08832414 17117,6917.904,95.438,540.837,538.7,0.0
